{
  "type": "FeatureCollection",
  "features": [
    {
      "type": "Feature",
      "properties": {
        "norad_id": 35793,
        "name": "COSMOS 2251 DEB",
        "group": "cosmos-2251-debris",
        "lat": -70.91646223299554,
        "lon": -70.73276350270045,
        "alt_km": 641.5437672474436,
        "timestamp": "2025-12-16T03:53:27.451988+00:00",
        "meta_object_name": "COSMOS 2251 DEB",
        "meta_object_id": "1993-036ASP",
        "meta_epoch": "2025-12-13T21:40:35.178816",
        "meta_mean_motion": 14.78725725,
        "meta_eccentricity": 0.00024095,
        "meta_inclination": 74.041,
        "meta_ra_of_asc_node": 57.8966,
        "meta_arg_of_pericenter": 115.747,
        "meta_mean_anomaly": 3.1573,
        "meta_ephemeris_type": 0,
        "meta_classification_type": "U",
        "meta_norad_cat_id": 35793,
        "meta_element_set_no": 999,
        "meta_rev_at_epoch": 65814,
        "meta_bstar": 0.001778655,
        "meta_mean_motion_dot": 0.0001305,
        "meta_mean_motion_ddot": 0,
        "tle_line1": "1 35793U 93036ASP 25347.90318494  .00013050  00000+0  17787-2 0  9997",
        "tle_line2": "2 35793  74.0410  57.8966 0002409 115.7470   3.1573 14.78725725658147"
      },
      "geometry": {
        "type": "Point",
        "coordinates": [
          -70.73276350270045,
          -70.91646223299554
        ]
      }
    },
    {
      "type": "Feature",
      "properties": {
        "norad_id": 35824,
        "name": "COSMOS 2251 DEB",
        "group": "cosmos-2251-debris",
        "lat": -64.8814443014999,
        "lon": -98.90822637347132,
        "alt_km": 1034.1367886518146,
        "timestamp": "2025-12-16T03:53:27.451998+00:00",
        "meta_object_name": "COSMOS 2251 DEB",
        "meta_object_id": "1993-036ASW",
        "meta_epoch": "2025-12-14T21:18:49.451904",
        "meta_mean_motion": 13.88428233,
        "meta_eccentricity": 0.02485866,
        "meta_inclination": 73.847,
        "meta_ra_of_asc_node": 45.098,
        "meta_arg_of_pericenter": 130.8457,
        "meta_mean_anomaly": 231.4512,
        "meta_ephemeris_type": 0,
        "meta_classification_type": "U",
        "meta_norad_cat_id": 35824,
        "meta_element_set_no": 999,
        "meta_rev_at_epoch": 84257,
        "meta_bstar": 0.00081613967,
        "meta_mean_motion_dot": 1.23e-05,
        "meta_mean_motion_ddot": 0,
        "tle_line1": "1 35824U 93036ASW 25348.88807236  .00001230  00000+0  81614-3 0  9995",
        "tle_line2": "2 35824  73.8470  45.0980 0248586 130.8457 231.4512 13.88428233842576"
      },
      "geometry": {
        "type": "Point",
        "coordinates": [
          -98.90822637347132,
          -64.8814443014999
        ]
      }
    },
    {
      "type": "Feature",
      "properties": {
        "norad_id": 35825,
        "name": "COSMOS 2251 DEB",
        "group": "cosmos-2251-debris",
        "lat": 45.502008862202445,
        "lon": 153.86270977569612,
        "alt_km": 1251.0665581149105,
        "timestamp": "2025-12-16T03:53:27.452008+00:00",
        "meta_object_name": "COSMOS 2251 DEB",
        "meta_object_id": "1993-036ASX",
        "meta_epoch": "2025-12-14T02:36:29.406816",
        "meta_mean_motion": 13.70963524,
        "meta_eccentricity": 0.03526119,
        "meta_inclination": 74.113,
        "meta_ra_of_asc_node": 140.3902,
        "meta_arg_of_pericenter": 235.9093,
        "meta_mean_anomaly": 120.8102,
        "meta_ephemeris_type": 0,
        "meta_classification_type": "U",
        "meta_norad_cat_id": 35825,
        "meta_element_set_no": 999,
        "meta_rev_at_epoch": 82527,
        "meta_bstar": 0.0023333684,
        "meta_mean_motion_dot": 3.214e-05,
        "meta_mean_motion_ddot": 0,
        "tle_line1": "1 35825U 93036ASX 25348.10867369  .00003214  00000+0  23334-2 0  9992",
        "tle_line2": "2 35825  74.1130 140.3902 0352611 235.9093 120.8102 13.70963524825277"
      },
      "geometry": {
        "type": "Point",
        "coordinates": [
          153.86270977569612,
          45.502008862202445
        ]
      }
    },
    {
      "type": "Feature",
      "properties": {
        "norad_id": 35829,
        "name": "COSMOS 2251 DEB",
        "group": "cosmos-2251-debris",
        "lat": 30.162008978962444,
        "lon": -97.48383895994688,
        "alt_km": 634.6241717964094,
        "timestamp": "2025-12-16T03:53:27.452018+00:00",
        "meta_object_name": "COSMOS 2251 DEB",
        "meta_object_id": "1993-036ATB",
        "meta_epoch": "2025-12-14T00:48:22.506048",
        "meta_mean_motion": 14.76339353,
        "meta_eccentricity": 0.00060216,
        "meta_inclination": 74.0232,
        "meta_ra_of_asc_node": 96.2701,
        "meta_arg_of_pericenter": 150.1263,
        "meta_mean_anomaly": 210.0256,
        "meta_ephemeris_type": 0,
        "meta_classification_type": "U",
        "meta_norad_cat_id": 35829,
        "meta_element_set_no": 999,
        "meta_rev_at_epoch": 87794,
        "meta_bstar": 0.0017696749,
        "meta_mean_motion_dot": 0.00012277,
        "meta_mean_motion_ddot": 0,
        "tle_line1": "1 35829U 93036ATB 25348.03359382  .00012277  00000+0  17697-2 0  9993",
        "tle_line2": "2 35829  74.0232  96.2701 0006021 150.1263 210.0256 14.76339353877944"
      },
      "geometry": {
        "type": "Point",
        "coordinates": [
          -97.48383895994688,
          30.162008978962444
        ]
      }
    },
    {
      "type": "Feature",
      "properties": {
        "norad_id": 35830,
        "name": "COSMOS 2251 DEB",
        "group": "cosmos-2251-debris",
        "lat": 13.798562897457252,
        "lon": 76.13186467047528,
        "alt_km": 770.9672776089856,
        "timestamp": "2025-12-16T03:53:27.452028+00:00",
        "meta_object_name": "COSMOS 2251 DEB",
        "meta_object_id": "1993-036ATC",
        "meta_epoch": "2025-12-14T12:19:34.493088",
        "meta_mean_motion": 14.23999153,
        "meta_eccentricity": 0.01219147,
        "meta_inclination": 73.8627,
        "meta_ra_of_asc_node": 263.2082,
        "meta_arg_of_pericenter": 231.1991,
        "meta_mean_anomaly": 127.8218,
        "meta_ephemeris_type": 0,
        "meta_classification_type": "U",
        "meta_norad_cat_id": 35830,
        "meta_element_set_no": 999,
        "meta_rev_at_epoch": 61289,
        "meta_bstar": 0.0011142473,
        "meta_mean_motion_dot": 2.736e-05,
        "meta_mean_motion_ddot": 0,
        "tle_line1": "1 35830U 93036ATC 25348.51359367  .00002736  00000+0  11142-2 0  9999",
        "tle_line2": "2 35830  73.8627 263.2082 0121914 231.1991 127.8218 14.23999153612892"
      },
      "geometry": {
        "type": "Point",
        "coordinates": [
          76.13186467047528,
          13.798562897457252
        ]
      }
    },
    {
      "type": "Feature",
      "properties": {
        "norad_id": 35834,
        "name": "COSMOS 2251 DEB",
        "group": "cosmos-2251-debris",
        "lat": -47.88589172665072,
        "lon": 137.0423315866294,
        "alt_km": 908.6106497612891,
        "timestamp": "2025-12-16T03:53:27.452038+00:00",
        "meta_object_name": "COSMOS 2251 DEB",
        "meta_object_id": "1993-036ATG",
        "meta_epoch": "2025-12-14T22:12:13.860288",
        "meta_mean_motion": 14.12983028,
        "meta_eccentricity": 0.01092939,
        "meta_inclination": 73.9319,
        "meta_ra_of_asc_node": 300.6514,
        "meta_arg_of_pericenter": 100.3352,
        "meta_mean_anomaly": 319.5406,
        "meta_ephemeris_type": 0,
        "meta_classification_type": "U",
        "meta_norad_cat_id": 35834,
        "meta_element_set_no": 999,
        "meta_rev_at_epoch": 66294,
        "meta_bstar": 0.00039555683,
        "meta_mean_motion_dot": 7.56e-06,
        "meta_mean_motion_ddot": 0,
        "tle_line1": "1 35834U 93036ATG 25348.92516042  .00000756  00000+0  39556-3 0  9993",
        "tle_line2": "2 35834  73.9319 300.6514 0109293 100.3352 319.5406 14.12983028662947"
      },
      "geometry": {
        "type": "Point",
        "coordinates": [
          137.0423315866294,
          -47.88589172665072
        ]
      }
    },
    {
      "type": "Feature",
      "properties": {
        "norad_id": 35835,
        "name": "COSMOS 2251 DEB",
        "group": "cosmos-2251-debris",
        "lat": 21.125647968167986,
        "lon": 76.34674226432365,
        "alt_km": 1035.8905677478378,
        "timestamp": "2025-12-16T03:53:27.452049+00:00",
        "meta_object_name": "COSMOS 2251 DEB",
        "meta_object_id": "1993-036ATH",
        "meta_epoch": "2025-12-14T02:32:38.290272",
        "meta_mean_motion": 13.82885991,
        "meta_eccentricity": 0.02905018,
        "meta_inclination": 74.0643,
        "meta_ra_of_asc_node": 266.1402,
        "meta_arg_of_pericenter": 47.4139,
        "meta_mean_anomaly": 315.1102,
        "meta_ephemeris_type": 0,
        "meta_classification_type": "U",
        "meta_norad_cat_id": 35835,
        "meta_element_set_no": 999,
        "meta_rev_at_epoch": 61718,
        "meta_bstar": 0.0018908593,
        "meta_mean_motion_dot": 2.83e-05,
        "meta_mean_motion_ddot": 0,
        "tle_line1": "1 35835U 93036ATH 25348.10599873  .00002830  00000+0  18909-2 0  9990",
        "tle_line2": "2 35835  74.0643 266.1402 0290501  47.4139 315.1102 13.82885991617186"
      },
      "geometry": {
        "type": "Point",
        "coordinates": [
          76.34674226432365,
          21.125647968167986
        ]
      }
    }
  ]
}